{"type": "FeatureCollection", "features": [ {"type": "Feature", "properties": {"norad_id": 29820, "name": "FENGYUN 1C DEB", "group": "fengyun-1c-debris", "lat": 27.02150937980267, "lon": -1.542224232100777, "alt_km": 936.0576717099211, "timestamp": "2025-12-22T05:49:03.771037+00:00", "meta": {"OBJECT_NAME": "FENGYUN 1C DEB", "OBJECT_ID": "1999-025DN", "EPOCH": "2025-12-21T18:33:01.183968", "MEAN_MOTION": 14.02623043, "ECCENTRICITY": 0.007238, "INCLINATION": 98.8324, "RA_OF_ASC_NODE": 2.5507, "ARG_OF_PERICENTER": 212.4066, "MEAN_ANOMALY": 325.7366, "EPHEMERIS_TYPE": 0, "CLASSIFICATION_TYPE": "U", "NORAD_CAT_ID": 29820, "ELEMENT_SET_NO": 999, "REV_AT_EPOCH": 96686, "BSTAR": 0.00063039, "MEAN_MOTION_DOT": 9.52e-06, "MEAN_MOTION_DDOT": 0}, "tle": {"line1": "1 29820U 99025DN  25355.77293037  .00000952  00000+0  63039-3 0  9993", "line2": "2 29820  98.8324   2.5507 0072380 212.4066 325.7366 14.02623043966869"}}, "geometry": {"type": "Point", "coordinates": [-1.542224232100777, 27.02150937980267]}}, {"type": "Feature", "properties": {"norad_id": 29821, "name": "FENGYUN 1C DEB", "group": "fengyun-1c-debris", "lat": 1.712090722131153, "lon": 50.87881767207204, "alt_km": 857.4770304155227, "timestamp": "2025-12-22T05:49:03.771047+00:00", "meta": {"OBJECT_NAME": "FENGYUN 1C DEB", "OBJECT_ID": "1999-025DP", "EPOCH": "2025-12-21T02:51:20.174400", "MEAN_MOTION": 14.11101404, "ECCENTRICITY": 0.03762205, "INCLINATION": 98.8723, "RA_OF_ASC_NODE": 50.0336, "ARG_OF_PERICENTER": 97.0192, "MEAN_ANOMALY": 325.3782, "EPHEMERIS_TYPE": 0, "CLASSIFICATION_TYPE": "U", "NORAD_CAT_ID": 29821, "ELEMENT_SET_NO": 999, "REV_AT_EPOCH": 96629, "BSTAR": 0.00036121512, "MEAN_MOTION_DOT": 1.218e-05, "MEAN_MOTION_DDOT": 0}, "tle": {"line1": "1 29821U 99025DP  25355.11898350  .00001218  00000+0  36122-3 0  9990", "line2": "2 29821  98.8723  50.0336 0376220  97.0192 325.3782 14.11101404966295"}}, "geometry": {"type": "Point", "coordinates": [50.87881767207204, 1.712090722131153]}}, {"type": "Feature", "properties": {"norad_id": 29827, "name": "FENGYUN 1C DEB", "group": "fengyun-1c-debris", "lat": -8.418509239969486, "lon": -11.51453655103981, "alt_km": 813.9538437411684, "timestamp": "2025-12-22T05:49:03.771057+00:00", "meta": {"OBJECT_NAME": "FENGYUN 1C DEB", "OBJECT_ID": "1999-025DV", "EPOCH": "2025-12-20T22:03:03.284928", "MEAN_MOTION": 14.21698822, "ECCENTRICITY": 0.0024686, "INCLINATION": 98.6027, "RA_OF_ASC_NODE": 345.9115, "ARG_OF_PERICENTER": 298.0313, "MEAN_ANOMALY": 122.742, "EPHEMERIS_TYPE": 0, "CLASSIFICATION_TYPE": "U", "NORAD_CAT_ID": 29827, "ELEMENT_SET_NO": 999, "REV_AT_EPOCH": 97979, "BSTAR": 0.00024339, "MEAN_MOTION_DOT": 4.93e-06, "MEAN_MOTION_DDOT": 0}, "tle": {"line1": "1 29827U 99025DV  25354.91878802  .00000493  00000+0  24339-3 0  9994", "line2": "2 29827  98.6027 345.9115 0024686 298.0313 122.7420 14.21698822979794"}}, "geometry": {"type": "Point", "coordinates": [-11.51453655103981, -8.418509239969486]}}, {"type": "Feature", "properties": {"norad_id": 29828, "name": "FENGYUN 1C DEB", "group": "fengyun-1c-debris", "lat": -53.05238125163248, "lon": 53.28758713903753, "alt_km": 916.9550766335578, "timestamp": "2025-12-22T05:49:03.771067+00:00", "meta": {"OBJECT_NAME": "FENGYUN 1C DEB", "OBJECT_ID": "1999-025DW", "EPOCH": "2025-12-21T10:09:59.256864", "MEAN_MOTION": 14.0818708, "ECCENTRICITY": 0.00614611, "INCLINATION": 98.7693, "RA_OF_ASC_NODE": 40.6491, "ARG_OF_PERICENTER": 132.0079, "MEAN_ANOMALY": 345.4677, "EPHEMERIS_TYPE": 0, "CLASSIFICATION_TYPE": "U", "NORAD_CAT_ID": 29828, "ELEMENT_SET_NO": 999, "REV_AT_EPOCH": 96859, "BSTAR": 0.00068531978, "MEAN_MOTION_DOT": 1.147e-05, "MEAN_MOTION_DDOT": 0}, "tle": {"line1": "1 29828U 99025DW  25355.42360251  .00001147  00000+0  68532-3 0  9996", "line2": "2 29828  98.7693  40.6491 0061461 132.0079 345.4677 14.08187080968597"}}, "geometry": {"type": "Point", "coordinates": [53.28758713903753, -53.05238125163248]}}, {"type": "Feature", "properties": {"norad_id": 29832, "name": "FENGYUN 1C DEB", "group": "fengyun-1c-debris", "lat": -8.629510894722118, "lon": -73.12662016118593, "alt_km": 649.3807435346671, "timestamp": "2025-12-22T05:49:03.771077+00:00", "meta": {"OBJECT_NAME": "FENGYUN 1C DEB", "OBJECT_ID": "1999-025EA", "EPOCH": "2025-12-21T19:02:36.984768", "MEAN_MOTION": 14.56572294, "ECCENTRICITY": 0.0192236, "INCLINATION": 98.8196, "RA_OF_ASC_NODE": 107.7486, "ARG_OF_PERICENTER": 255.3521, "MEAN_ANOMALY": 102.6294, "EPHEMERIS_TYPE": 0, "CLASSIFICATION_TYPE": "U", "NORAD_CAT_ID": 29832, "ELEMENT_SET_NO": 999, "REV_AT_EPOCH": 387, "BSTAR": 0.0001509, "MEAN_MOTION_DOT": 7.97e-06, "MEAN_MOTION_DDOT": 0}, "tle": {"line1": "1 29832U 99025EA  25355.79348362  .00000797  00000+0  15090-3 0  9991", "line2": "2 29832  98.8196 107.7486 0192236 255.3521 102.6294 14.56572294  3873"}}, "geometry": {"type": "Point", "coordinates": [-73.12662016118593, -8.629510894722118]}}, {"type": "Feature", "properties": {"norad_id": 29833, "name": "FENGYUN 1C DEB", "group": "fengyun-1c-debris", "lat": -57.17849772003695, "lon": -5.666574242107919, "alt_km": 585.060690694384, "timestamp": "2025-12-22T05:49:03.771087+00:00", "meta": {"OBJECT_NAME": "FENGYUN 1C DEB", "OBJECT_ID": "1999-025EB", "EPOCH": "2025-12-20T21:52:24.407040", "MEAN_MOTION": 14.91269561, "ECCENTRICITY": 0.0088607, "INCLINATION": 99.0772, "RA_OF_ASC_NODE": 338.4519, "ARG_OF_PERICENTER": 230.4262, "MEAN_ANOMALY": 128.9103, "EPHEMERIS_TYPE": 0, "CLASSIFICATION_TYPE": "U", "NORAD_CAT_ID": 29833, "ELEMENT_SET_NO": 999, "REV_AT_EPOCH": 693, "BSTAR": 0.00074773, "MEAN_MOTION_DOT": 7.95e-05, "MEAN_MOTION_DDOT": 0}, "tle": {"line1": "1 29833U 99025EB  25354.91139360  .00007950  00000+0  74773-3 0  9992", "line2": "2 29833  99.0772 338.4519 0088607 230.4262 128.9103 14.91269561  6938"}}, "geometry": {"type": "Point", "coordinates": [-5.666574242107919, -57.17849772003695]}}, {"type": "Feature", "properties": {"norad_id": 29835, "name": "FENGYUN 1C DEB", "group": "fengyun-1c-debris", "lat": -66.89590157309804, "lon": 147.0766224317982, "alt_km": 727.2272469845411, "timestamp": "2025-12-22T05:49:03.771097+00:00", "meta": {"OBJECT_NAME": "FENGYUN 1C DEB", "OBJECT_ID": "1999-025ED", "EPOCH": "2025-12-20T07:47:06.077760", "MEAN_MOTION": 14.43377492, "ECCENTRICITY": 0.01675614, "INCLINATION": 99.0261, "RA_OF_ASC_NODE": 123.1687, "ARG_OF_PERICENTER": 14.7882, "MEAN_ANOMALY": 37.7889, "EPHEMERIS_TYPE": 0, "CLASSIFICATION_TYPE": "U", "NORAD_CAT_ID": 29835, "ELEMENT_SET_NO": 999, "REV_AT_EPOCH": 99604, "BSTAR": 3.7805809e-05, "MEAN_MOTION_DOT": 9.3e-07, "MEAN_MOTION_DDOT": 0}, "tle": {"line1": "1 29835U 99025ED  25354.32437590  .00000093  00000+0  37806-4 0  9993", "line2": "2 29835  99.0261 123.1687 0167561  14.7882  37.7889 14.43377492996044"}}, "geometry": {"type": "Point", "coordinates": [147.0766224317982, -66.89590157309804]}}, {"type": "Feature", "properties": {"norad_id": 29836, "name": "FENGYUN 1C DEB", "group": "fengyun-1c-debris", "lat": -9.983871517992746, "lon": -89.47104269536901, "alt_km": 611.0598210911976, "timestamp": "2025-12-22T05:49:03.771108+00:00", "meta": {"OBJECT_NAME": "FENGYUN 1C DEB", "OBJECT_ID": "1999-025EE", "EPOCH": "2025-12-20T18:52:00.569280", "MEAN_MOTION": 14.54149605, "ECCENTRICITY": 0.01549173, "INCLINATION": 98.188, "RA_OF_ASC_NODE": 90.5561, "ARG_OF_PERICENTER": 177.5236, "MEAN_ANOMALY": 312.8448, "EPHEMERIS_TYPE": 0, "CLASSIFICATION_TYPE": "U", "NORAD_CAT_ID": 29836, "ELEMENT_SET_NO": 999, "REV_AT_EPOCH": 63672, "BSTAR": 0.00041409008, "MEAN_MOTION_DOT": 2.003e-05, "MEAN_MOTION_DDOT": 0}, "tle": {"line1": "1 29836U 99025EE  25354.78611770  .00002003  00000+0  41409-3 0  9994", "line2": "2 29836  98.1880  90.5561 0154917 177.5236 312.8448 14.54149605636721"}}, "geometry": {"type": "Point", "coordinates": [-89.47104269536901, -9.983871517992746]}}, {"type": "Feature", "properties": {"norad_id": 29841, "name": "FENGYUN 1C DEB", "group": "fengyun-1c-debris", "lat": -55.249664400119975, "lon": -43.28475869941528, "alt_km": 601.8030703841405, "timestamp": "2025-12-22T05:49:03.771118+00:00", "meta": {"OBJECT_NAME": "FENGYUN 1C DEB", "OBJECT_ID": "1999-025EK", "EPOCH": "2025-12-21T09:05:13.506720", "MEAN_MOTION": 14.46511571, "ECCENTRICITY": 0.01999603, "INCLINATION": 98.82, "RA_OF_ASC_NODE": 302.8828, "ARG_OF_PERICENTER": 307.705, "MEAN_ANOMALY": 180.6892, "EPHEMERIS_TYPE": 0, "CLASSIFICATION_TYPE": "U", "NORAD_CAT_ID": 29841, "ELEMENT_SET_NO": 999, "REV_AT_EPOCH": 99448, "BSTAR": 0.00037473783, "MEAN_MOTION_DOT": 1.67e-05, "MEAN_MOTION_DDOT": 0}, "tle": {"line1": "1 29841U 99025EK  25355.37862855  .00001670  00000+0  37474-3 0  9994", "line2": "2 29841  98.8200 302.8828 0199960 307.7050 180.6892 14.46511571994483"}}, "geometry": {"type": "Point", "coordinates": [-43.28475869941528, -55.249664400119975]}}, {"type": "Feature", "properties": {"norad_id": 29842, "name": "FENGYUN 1C DEB", "group": "fengyun-1c-debris", "lat": 74.11920130883135, "lon": -63.892188176512576, "alt_km": 619.8468113680619, "timestamp": "2025-12-22T05:49:03.771128+00:00", "meta": {"OBJECT_NAME": "FENGYUN 1C DEB", "OBJECT_ID": "1999-025EL", "EPOCH": "2025-12-21T11:50:29.358240", "MEAN_MOTION": 14.60357209, "ECCENTRICITY": 0.01090691, "INCLINATION": 98.5692, "RA_OF_ASC_NODE": 83.3272, "ARG_OF_PERICENTER": 138.5339, "MEAN_ANOMALY": 350.0776, "EPHEMERIS_TYPE": 0, "CLASSIFICATION_TYPE": "U", "NORAD_CAT_ID": 29842, "ELEMENT_SET_NO": 999, "REV_AT_EPOCH": 99481, "BSTAR": 0.00095083601, "MEAN_MOTION_DOT": 4.948e-05, "MEAN_MOTION_DDOT": 0}, "tle": {"line1": "1 29842U 99025EL  25355.49339535  .00004948  00000+0  95084-3 0  9994", "line2": "2 29842  98.5692  83.3272 0109069 138.5339 350.0776 14.60357209994814"}}, "geometry": {"type": "Point", "coordinates": [-63.892188176512576, 74.11920130883135]}}]}